# 2009 07 03 00 05 5.10 30.905 110.768 6.60 0.3 0.00 0.00 0.00 1797
YDB    1.040   1.0   P
LZY    1.330   1.0   P
YGT    2.675   1.0   P
TPX    2.910   1.0   P
CJP    2.935   1.0   P
STB    3.340   1.0   P
BJH    5.005   1.0   P
YDB    1.840   0.5   S
LZY    2.365   0.5   S
YGT    4.860   0.5   S
TPX    5.180   0.5   S
CJP    5.245   0.5   S
STB    5.975   0.5   S
BJH    8.910   0.5   S
# 2009 07 03 00 42 14.50 31.028 110.539 6.20 -0.2 0.00 0.00 0.00 1798
BJH    1.220   1.0   P
FJP    1.310   1.0   P
CJP    1.945   1.0   P
MLC    2.760   1.0   P
BJH    2.415   0.5   S
FJP    2.585   0.5   S
CJP    3.675   0.5   S
MLC    5.335   0.5   S
# 2009 07 03 00 50 25.90 31.035 110.539 7.20 0.0 0.00 0.00 0.00 1799
BJH    1.105   1.0   P
CJP    1.810   1.0   P
PLT    2.015   1.0   P
MLC    2.750   1.0   P
DTP    2.735   1.0   P
JJP    4.425   1.0   P
BJH    2.295   0.5   S
CJP    3.620   0.5   S
PLT    3.990   0.5   S
MLC    5.210   0.5   S
DTP    5.450   0.5   S
JJP    8.640   0.5   S
# 2009 07 03 01 23 11.40 31.031 110.538 6.50 1.5 0.00 0.00 0.00 1800
BJH    1.295   1.0   P
FJP    1.395   1.0   P
CJP    1.995   1.0   P
PLT    2.235   1.0   P
MLC    2.780   1.0   P
YGT    3.505   1.0   P
TPX    6.345   1.0   P
BJH    2.465   0.5   S
FJP    2.700   0.5   S
CJP    3.705   0.5   S
PLT    4.190   0.5   S
MLC    5.305   0.5   S
YGT    6.890   0.5   S
TPX   11.995   0.5   S
# 2009 07 03 01 43 30.60 30.912 110.755 5.30 -0.2 0.00 0.00 0.00 1801
YDB    1.020   1.0   P
LZY    1.280   1.0   P
ZJW    1.715   1.0   P
YGT    2.660   1.0   P
YDB    1.810   0.5   S
LZY    2.305   0.5   S
ZJW    2.995   0.5   S
YGT    4.685   0.5   S
# 2009 07 03 02 28 35.40 30.922 110.762 10.00 0.2 0.00 0.00 0.00 1802
YDB    1.490   1.0   P
ZJW    1.695   1.0   P
JJP    1.990   1.0   P
CJP    2.690   1.0   P
TPX    3.055   1.0   P
BJH    4.550   1.0   P
PYB    7.295   1.0   P
YDB    2.760   0.5   S
ZJW    3.075   0.5   S
JJP    3.705   0.5   S
CJP    4.980   0.5   S
TPX    5.335   0.5   S
BJH    8.350   0.5   S
PYB   13.040   0.5   S
# 2009 07 03 03 59 32.20 31.034 110.537 8.30 1.3 0.00 0.00 0.00 1803
BJH    1.585   1.0   P
FJP    1.645   1.0   P
CJP    2.245   1.0   P
PLT    2.500   1.0   P
STB    2.565   1.0   P
MLC    3.070   1.0   P
DTP    3.195   1.0   P
YGT    3.780   1.0   P
DPC    3.915   1.0   P
LPT    4.490   1.0   P
JJP    4.695   1.0   P
TPX    6.705   1.0   P
BJH    2.790   0.5   S
FJP    2.930   0.5   S
CJP    4.085   0.5   S
PLT    4.480   0.5   S
STB    4.755   0.5   S
MLC    5.725   0.5   S
DTP    6.005   0.5   S
YGT    7.045   0.5   S
DPC    7.550   0.5   S
LPT    8.425   0.5   S
JJP    9.055   0.5   S
TPX   12.245   0.5   S
# 2009 07 03 04 07 23.30 31.018 110.504 3.50 -0.2 0.00 0.00 0.00 1804
FJP    0.720   1.0   P
BJH    1.575   1.0   P
MLC    2.185   1.0   P
SBC    2.320   1.0   P
CJP    2.360   1.0   P
STB    2.825   1.0   P
YGT    4.210   1.0   P
FJP    1.425   0.5   S
BJH    2.950   0.5   S
MLC    4.290   0.5   S
SBC    4.505   0.5   S
CJP    4.525   0.5   S
STB    5.250   0.5   S
YGT    7.885   0.5   S
# 2009 07 03 04 12 18.20 31.035 110.536 7.70 0.0 0.00 0.00 0.00 1805
BJH    1.555   1.0   P
CJP    2.235   1.0   P
STB    2.530   1.0   P
PLT    2.465   1.0   P
SBC    2.785   1.0   P
MLC    2.990   1.0   P
STP    4.400   1.0   P
LPT    4.470   1.0   P
JJP    4.830   1.0   P
BJH    2.690   0.5   S
CJP    3.935   0.5   S
STB    4.610   0.5   S
PLT    4.410   0.5   S
SBC    5.230   0.5   S
MLC    5.685   0.5   S
STP    8.610   0.5   S
LPT    8.295   0.5   S
JJP    8.965   0.5   S
# 2009 07 03 05 13 51.70 31.033 110.534 7.70 0.3 0.00 0.00 0.00 1806
BJH    1.855   1.0   P
CJP    2.555   1.0   P
PLT    2.700   1.0   P
SBC    3.025   1.0   P
DTP    3.505   1.0   P
LPT    4.735   1.0   P
BJH    3.000   0.5   S
CJP    4.300   0.5   S
PLT    4.670   0.5   S
SBC    5.455   0.5   S
DTP    5.990   0.5   S
LPT    8.650   0.5   S
# 2009 07 03 05 25 39.10 30.944 110.754 4.80 0.6 0.00 0.00 0.00 1807
YDB    1.055   1.0   P
JJP    1.390   1.0   P
CJP    2.285   1.0   P
STB    2.520   1.0   P
TPX    3.170   1.0   P
YDB    1.885   0.5   S
JJP    2.595   0.5   S
CJP    4.065   0.5   S
STB    4.640   0.5   S
TPX    5.580   0.5   S
# 2009 07 03 05 56 2.40 31.034 110.538 7.30 0.8 0.00 0.00 0.00 1808
BJH    1.905   1.0   P
FJP    1.990   1.0   P
CJP    2.595   1.0   P
PLT    2.850   1.0   P
SBC    3.155   1.0   P
DTP    3.595   1.0   P
BJH    3.140   0.5   S
FJP    3.240   0.5   S
CJP    4.345   0.5   S
PLT    4.840   0.5   S
SBC    5.720   0.5   S
DTP    6.260   0.5   S
# 2009 07 03 09 18 10.30 31.037 110.541 8.80 0.6 0.00 0.00 0.00 1809
BJH    2.110   1.0   P
CJP    2.835   1.0   P
PLT    3.045   1.0   P
SBC    3.380   1.0   P
MLC    3.735   1.0   P
DTP    3.755   1.0   P
LPT    5.050   1.0   P
BJH    3.310   0.5   S
CJP    4.605   0.5   S
PLT    5.005   0.5   S
SBC    5.855   0.5   S
MLC    6.240   0.5   S
DTP    6.465   0.5   S
LPT    8.925   0.5   S
# 2009 07 03 09 37 7.70 31.028 110.541 4.40 0.2 0.00 0.00 0.00 1810
BJH    1.445   1.0   P
CJP    2.125   1.0   P
PLT    2.370   1.0   P
STB    2.455   1.0   P
BJH    2.580   0.5   S
CJP    3.840   0.5   S
PLT    4.310   0.5   S
STB    4.550   0.5   S
# 2009 07 03 13 06 1.20 31.033 110.533 7.40 1.5 0.00 0.00 0.00 1811
BJH    2.020   1.0   P
FJP    2.095   1.0   P
CJP    2.765   1.0   P
PLT    2.925   1.0   P
DTP    3.660   1.0   P
PYB    3.775   1.0   P
YGT    4.240   1.0   P
LPT    4.920   1.0   P
TPX    7.090   1.0   P
BJH    3.200   0.5   S
FJP    3.335   0.5   S
CJP    4.500   0.5   S
PLT    4.875   0.5   S
DTP    6.455   0.5   S
PYB    6.690   0.5   S
YGT    7.520   0.5   S
LPT    8.865   0.5   S
TPX   12.855   0.5   S
# 2009 07 03 13 14 15.70 31.035 110.538 8.00 0.7 0.00 0.00 0.00 1812
BJH    1.870   1.0   P
FJP    1.945   1.0   P
CJP    2.560   1.0   P
PLT    2.750   1.0   P
SBC    3.100   1.0   P
DTP    3.510   1.0   P
PYB    3.610   1.0   P
DPC    4.230   1.0   P
LPT    4.785   1.0   P
BJH    3.025   0.5   S
FJP    3.195   0.5   S
CJP    4.330   0.5   S
PLT    4.710   0.5   S
SBC    5.605   0.5   S
DTP    6.280   0.5   S
PYB    6.490   0.5   S
DPC    7.775   0.5   S
LPT    8.695   0.5   S
# 2009 07 03 13 36 1.20 31.035 110.538 8.10 1.0 0.00 0.00 0.00 1813
BJH    2.140   1.0   P
FJP    2.160   1.0   P
CJP    2.840   1.0   P
PLT    3.010   1.0   P
SBC    3.310   1.0   P
DTP    3.750   1.0   P
PYB    3.870   1.0   P
DPC    4.475   1.0   P
STP    4.965   1.0   P
LPT    5.035   1.0   P
BJH    3.260   0.5   S
FJP    3.440   0.5   S
CJP    4.615   0.5   S
PLT    4.985   0.5   S
SBC    5.990   0.5   S
DTP    6.485   0.5   S
PYB    6.790   0.5   S
DPC    7.965   0.5   S
STP    8.915   0.5   S
LPT    8.815   0.5   S
# 2009 07 03 13 46 56.80 31.033 110.533 8.00 0.7 0.00 0.00 0.00 1814
BJH    1.755   1.0   P
FJP    1.845   1.0   P
PLT    2.660   1.0   P
STB    2.750   1.0   P
DTP    3.425   1.0   P
LPT    4.665   1.0   P
BJH    3.015   0.5   S
FJP    3.135   0.5   S
PLT    4.620   0.5   S
STB    4.870   0.5   S
DTP    6.095   0.5   S
LPT    8.555   0.5   S
# 2009 07 03 13 50 32.60 31.033 110.533 7.40 1.0 0.00 0.00 0.00 1815
BJH    1.835   1.0   P
CJP    2.545   1.0   P
PLT    2.750   1.0   P
STB    2.865   1.0   P
SBC    3.090   1.0   P
MLC    3.400   1.0   P
DTP    3.480   1.0   P
LPT    4.750   1.0   P
BJH    3.045   0.5   S
CJP    4.455   0.5   S
PLT    4.750   0.5   S
STB    4.970   0.5   S
MLC    5.765   0.5   S
DTP    6.230   0.5   S
LPT    8.705   0.5   S
# 2009 07 03 13 59 35.50 31.033 110.536 7.10 1.3 0.00 0.00 0.00 1816
BJH    1.830   1.0   P
FJP    1.865   1.0   P
CJP    2.505   1.0   P
PLT    2.725   1.0   P
STB    2.855   1.0   P
MLC    3.315   1.0   P
DTP    3.460   1.0   P
TPX    7.130   1.0   P
BJH    2.970   0.5   S
FJP    3.100   0.5   S
CJP    4.410   0.5   S
PLT    4.675   0.5   S
STB    4.940   0.5   S
MLC    5.955   0.5   S
DTP    6.220   0.5   S
TPX   12.665   0.5   S
# 2009 07 03 15 15 48.70 31.028 110.535 5.50 0.9 0.00 0.00 0.00 1817
BJH    1.120   1.0   P
CJP    1.820   1.0   P
PLT    2.030   1.0   P
STB    2.135   1.0   P
FJP    2.360   0.5   S
BJH    2.300   0.5   S
CJP    3.585   0.5   S
PLT    3.925   0.5   S
STB    4.200   0.5   S
# 2009 07 03 15 42 4.90 31.024 110.541 2.60 0.4 0.00 0.00 0.00 1818
CJP    1.560   1.0   P
STB    1.900   1.0   P
BJH    2.005   0.5   S
CJP    3.305   0.5   S
STB    3.920   0.5   S
# 2009 07 03 18 03 41.00 31.032 110.532 7.60 2.3 0.00 0.00 0.00 1819
FJP    1.725   1.0   P
BJH    1.665   1.0   P
CJP    2.400   1.0   P
PLT    2.570   1.0   P
STB    2.705   1.0   P
DTP    3.325   1.0   P
PYB    3.410   1.0   P
LPT    4.570   1.0   P
FJP    2.965   0.5   S
BJH    2.900   0.5   S
CJP    4.185   0.5   S
PLT    4.605   0.5   S
STB    4.850   0.5   S
DTP    6.185   0.5   S
PYB    6.345   0.5   S
LPT    8.555   0.5   S
# 2009 07 03 18 09 38.20 31.030 110.533 6.30 0.6 0.00 0.00 0.00 1820
BJH    1.935   1.0   P
PLT    2.810   1.0   P
STB    2.975   1.0   P
DPC    4.310   1.0   P
BJH    3.110   0.5   S
PLT    4.780   0.5   S
STB    5.025   0.5   S
DPC    7.765   0.5   S
# 2009 07 03 18 15 44.50 31.030 110.529 6.20 0.9 0.00 0.00 0.00 1821
BJH    1.340   1.0   P
PLT    2.220   1.0   P
STB    2.390   1.0   P
SBC    2.520   1.0   P
DTP    2.985   1.0   P
BJH    2.465   0.5   S
PLT    4.205   0.5   S
STB    4.550   0.5   S
SBC    5.000   0.5   S
DTP    5.690   0.5   S
# 2009 07 03 18 19 22.90 31.036 110.534 7.10 2.3 0.00 0.00 0.00 1822
CJP    1.965   1.0   P
PLT    2.140   1.0   P
SBC    2.390   1.0   P
MLC    2.620   1.0   P
DTP    2.835   1.0   P
PYB    2.930   1.0   P
DPC    3.560   1.0   P
LPT    4.100   1.0   P
TPX    6.315   1.0   P
CJP    3.775   0.5   S
PLT    4.050   0.5   S
SBC    4.840   0.5   S
MLC    5.125   0.5   S
DTP    5.555   0.5   S
PYB    5.755   0.5   S
DPC    7.085   0.5   S
LPT    7.975   0.5   S
TPX   12.175   0.5   S
# 2009 07 03 18 31 5.70 31.036 110.533 6.60 1.2 0.00 0.00 0.00 1823
BJH    1.605   1.0   P
FJP    1.650   1.0   P
STB    2.665   1.0   P
DTP    3.275   1.0   P
BJH    2.785   0.5   S
FJP    2.900   0.5   S
STB    4.820   0.5   S
DTP    6.040   0.5   S
# 2009 07 03 18 52 58.30 31.030 110.527 5.80 1.6 0.00 0.00 0.00 1824
BJH    1.445   1.0   P
CJP    2.180   1.0   P
PLT    2.320   1.0   P
STB    2.510   1.0   P
DTP    3.065   1.0   P
YGT    3.640   1.0   P
BJH    2.570   0.5   S
CJP    4.000   0.5   S
PLT    4.275   0.5   S
STB    4.595   0.5   S
DTP    5.730   0.5   S
YGT    7.070   0.5   S
# 2009 07 03 19 11 16.10 31.033 110.535 7.70 1.3 0.00 0.00 0.00 1825
BJH    2.115   1.0   P
FJP    2.160   1.0   P
PLT    3.000   1.0   P
SBC    3.335   1.0   P
DTP    3.750   1.0   P
LPT    5.045   1.0   P
TPX    7.375   1.0   P
BJH    3.290   0.5   S
FJP    3.440   0.5   S
PLT    4.930   0.5   S
SBC    5.855   0.5   S
DTP    6.460   0.5   S
LPT    8.890   0.5   S
TPX   12.960   0.5   S
# 2009 07 03 19 20 15.90 31.033 110.534 7.70 2.7 0.00 0.00 0.00 1826
BJH    1.225   1.0   P
FJP    1.270   1.0   P
CJP    1.970   1.0   P
PLT    2.140   1.0   P
STB    2.290   1.0   P
SBC    2.440   1.0   P
MLC    2.655   1.0   P
DTP    2.885   1.0   P
PYB    2.985   1.0   P
WLZ    3.090   1.0   P
DPC    3.570   1.0   P
TPX    6.290   1.0   P
BJH    2.400   0.5   S
FJP    2.540   0.5   S
CJP    3.745   0.5   S
PLT    4.090   0.5   S
STB    4.380   0.5   S
SBC    5.010   0.5   S
MLC    5.225   0.5   S
DTP    5.630   0.5   S
PYB    5.915   0.5   S
WLZ    6.220   0.5   S
DPC    6.970   0.5   S
TPX   11.995   0.5   S
# 2009 07 03 22 25 40.00 31.034 110.537 7.10 1.1 0.00 0.00 0.00 1827
BJH    1.575   1.0   P
FJP    1.635   1.0   P
CJP    2.275   1.0   P
PLT    2.480   1.0   P
STB    2.575   1.0   P
SBC    2.805   1.0   P
MLC    3.065   1.0   P
DTP    3.235   1.0   P
DPC    3.965   1.0   P
BJH    2.715   0.5   S
FJP    2.895   0.5   S
CJP    3.980   0.5   S
PLT    4.470   0.5   S
STB    4.680   0.5   S
SBC    5.380   0.5   S
MLC    5.620   0.5   S
DTP    5.885   0.5   S
DPC    7.540   0.5   S
# 2009 07 03 22 34 4.20 31.033 110.530 7.30 1.3 0.00 0.00 0.00 1828
FJP    2.085   1.0   P
BJH    2.050   1.0   P
CJP    2.805   1.0   P
PLT    2.970   1.0   P
STB    3.115   1.0   P
PYB    3.795   1.0   P
FJP    3.260   0.5   S
BJH    3.240   0.5   S
CJP    4.575   0.5   S
PLT    4.920   0.5   S
STB    5.260   0.5   S
PYB    6.615   0.5   S
# 2009 07 03 23 25 17.50 31.033 110.537 7.50 1.1 0.00 0.00 0.00 1829
BJH    1.365   1.0   P
FJP    1.470   1.0   P
CJP    2.055   1.0   P
PLT    2.285   1.0   P
STB    2.400   1.0   P
MLC    2.845   1.0   P
DTP    3.035   1.0   P
LPT    4.330   1.0   P
BJH    2.570   0.5   S
FJP    2.780   0.5   S
CJP    3.795   0.5   S
PLT    4.255   0.5   S
STB    4.485   0.5   S
MLC    5.450   0.5   S
DTP    5.845   0.5   S
LPT    8.345   0.5   S