# 2009 07 03 00 05  5.1  30.9050  110.7680   6.6  0.3   0.0   0.0   0.0 200900001
YDB      1.0400 1.0000 P
LZY      1.3300 1.0000 P
YGT      2.6750 1.0000 P
TPX      2.9100 1.0000 P
CJP      2.9350 1.0000 P
STB      3.3400 1.0000 P
BJH      5.0050 1.0000 P
YDB      1.8400 0.5000 S
LZY      2.3650 0.5000 S
YGT      4.8600 0.5000 S
TPX      5.1800 0.5000 S
CJP      5.2450 0.5000 S
STB      5.9750 0.5000 S
BJH      8.9100 0.5000 S
# 2009 07 03 00 42 14.5  31.0280  110.5390   6.2 -0.2   0.0   0.0   0.0 200900002
BJH      1.2200 1.0000 P
FJP      1.3100 1.0000 P
CJP      1.9450 1.0000 P
MLC      2.7600 1.0000 P
BJH      2.4150 0.5000 S
FJP      2.5850 0.5000 S
CJP      3.6750 0.5000 S
MLC      5.3350 0.5000 S
# 2009 07 03 00 50 25.9  31.0350  110.5390   7.2  0.0   0.0   0.0   0.0 200900003
BJH      1.1050 1.0000 P
CJP      1.8100 1.0000 P
PLT      2.0150 1.0000 P
MLC      2.7500 1.0000 P
DTP      2.7350 1.0000 P
JJP      4.4250 1.0000 P
BJH      2.2950 0.5000 S
CJP      3.6200 0.5000 S
PLT      3.9900 0.5000 S
MLC      5.2100 0.5000 S
DTP      5.4500 0.5000 S
JJP      8.6400 0.5000 S
# 2009 07 03 01 23 11.4  31.0310  110.5380   6.5  1.5   0.0   0.0   0.0 200900004
BJH      1.2950 1.0000 P
FJP      1.3950 1.0000 P
CJP      1.9950 1.0000 P
PLT      2.2350 1.0000 P
MLC      2.7800 1.0000 P
YGT      3.5050 1.0000 P
TPX      6.3450 1.0000 P
BJH      2.4650 0.5000 S
FJP      2.7000 0.5000 S
CJP      3.7050 0.5000 S
PLT      4.1900 0.5000 S
MLC      5.3050 0.5000 S
YGT      6.8900 0.5000 S
TPX     11.9950 0.5000 S
# 2009 07 03 01 43 30.6  30.9120  110.7550   5.3 -0.2   0.0   0.0   0.0 200900005
YDB      1.0200 1.0000 P
LZY      1.2800 1.0000 P
ZJW      1.7150 1.0000 P
YGT      2.6600 1.0000 P
YDB      1.8100 0.5000 S
LZY      2.3050 0.5000 S
ZJW      2.9950 0.5000 S
YGT      4.6850 0.5000 S
# 2009 07 03 02 28 35.4  30.9220  110.7620  10.0  0.2   0.0   0.0   0.0 200900006
YDB      1.4900 1.0000 P
ZJW      1.6950 1.0000 P
JJP      1.9900 1.0000 P
CJP      2.6900 1.0000 P
TPX      3.0550 1.0000 P
BJH      4.5500 1.0000 P
PYB      7.2950 1.0000 P
YDB      2.7600 0.5000 S
ZJW      3.0750 0.5000 S
JJP      3.7050 0.5000 S
CJP      4.9800 0.5000 S
TPX      5.3350 0.5000 S
BJH      8.3500 0.5000 S
PYB     13.0400 0.5000 S
# 2009 07 03 03 59 32.2  31.0340  110.5370   8.3  1.3   0.0   0.0   0.0 200900007
BJH      1.5850 1.0000 P
FJP      1.6450 1.0000 P
CJP      2.2450 1.0000 P
PLT      2.5000 1.0000 P
STB      2.5650 1.0000 P
MLC      3.0700 1.0000 P
DTP      3.1950 1.0000 P
YGT      3.7800 1.0000 P
DPC      3.9150 1.0000 P
LPT      4.4900 1.0000 P
JJP      4.6950 1.0000 P
TPX      6.7050 1.0000 P
BJH      2.7900 0.5000 S
FJP      2.9300 0.5000 S
CJP      4.0850 0.5000 S
PLT      4.4800 0.5000 S
STB      4.7550 0.5000 S
MLC      5.7250 0.5000 S
DTP      6.0050 0.5000 S
YGT      7.0450 0.5000 S
DPC      7.5500 0.5000 S
LPT      8.4250 0.5000 S
JJP      9.0550 0.5000 S
TPX     12.2450 0.5000 S
# 2009 07 03 04 07 23.3  31.0180  110.5040   3.5 -0.2   0.0   0.0   0.0 200900008
FJP      0.7200 1.0000 P
BJH      1.5750 1.0000 P
MLC      2.1850 1.0000 P
SBC      2.3200 1.0000 P
CJP      2.3600 1.0000 P
STB      2.8250 1.0000 P
YGT      4.2100 1.0000 P
FJP      1.4250 0.5000 S
BJH      2.9500 0.5000 S
MLC      4.2900 0.5000 S
SBC      4.5050 0.5000 S
CJP      4.5250 0.5000 S
STB      5.2500 0.5000 S
YGT      7.8850 0.5000 S
# 2009 07 03 04 12 18.2  31.0350  110.5360   7.7  0.0   0.0   0.0   0.0 200900009
BJH      1.5550 1.0000 P
CJP      2.2350 1.0000 P
STB      2.5300 1.0000 P
PLT      2.4650 1.0000 P
SBC      2.7850 1.0000 P
MLC      2.9900 1.0000 P
STP      4.4000 1.0000 P
LPT      4.4700 1.0000 P
JJP      4.8300 1.0000 P
BJH      2.6900 0.5000 S
CJP      3.9350 0.5000 S
STB      4.6100 0.5000 S
PLT      4.4100 0.5000 S
SBC      5.2300 0.5000 S
MLC      5.6850 0.5000 S
STP      8.6100 0.5000 S
LPT      8.2950 0.5000 S
JJP      8.9650 0.5000 S
# 2009 07 03 05 13 51.7  31.0330  110.5340   7.7  0.3   0.0   0.0   0.0 200900010
BJH      1.8550 1.0000 P
CJP      2.5550 1.0000 P
PLT      2.7000 1.0000 P
SBC      3.0250 1.0000 P
DTP      3.5050 1.0000 P
LPT      4.7350 1.0000 P
BJH      3.0000 0.5000 S
CJP      4.3000 0.5000 S
PLT      4.6700 0.5000 S
SBC      5.4550 0.5000 S
DTP      5.9900 0.5000 S
LPT      8.6500 0.5000 S
# 2009 07 03 05 25 39.1  30.9440  110.7540   4.8  0.6   0.0   0.0   0.0 200900011
YDB      1.0550 1.0000 P
JJP      1.3900 1.0000 P
CJP      2.2850 1.0000 P
STB      2.5200 1.0000 P
TPX      3.1700 1.0000 P
YDB      1.8850 0.5000 S
JJP      2.5950 0.5000 S
CJP      4.0650 0.5000 S
STB      4.6400 0.5000 S
TPX      5.5800 0.5000 S
# 2009 07 03 05 56  2.4  31.0340  110.5380   7.3  0.8   0.0   0.0   0.0 200900012
BJH      1.9050 1.0000 P
FJP      1.9900 1.0000 P
CJP      2.5950 1.0000 P
PLT      2.8500 1.0000 P
SBC      3.1550 1.0000 P
DTP      3.5950 1.0000 P
BJH      3.1400 0.5000 S
FJP      3.2400 0.5000 S
CJP      4.3450 0.5000 S
PLT      4.8400 0.5000 S
SBC      5.7200 0.5000 S
DTP      6.2600 0.5000 S
# 2009 07 03 09 18 10.3  31.0370  110.5410   8.8  0.6   0.0   0.0   0.0 200900013
BJH      2.1100 1.0000 P
CJP      2.8350 1.0000 P
PLT      3.0450 1.0000 P
SBC      3.3800 1.0000 P
MLC      3.7350 1.0000 P
DTP      3.7550 1.0000 P
LPT      5.0500 1.0000 P
BJH      3.3100 0.5000 S
CJP      4.6050 0.5000 S
PLT      5.0050 0.5000 S
SBC      5.8550 0.5000 S
MLC      6.2400 0.5000 S
DTP      6.4650 0.5000 S
LPT      8.9250 0.5000 S
# 2009 07 03 09 37  7.7  31.0280  110.5410   4.4  0.2   0.0   0.0   0.0 200900014
BJH      1.4450 1.0000 P
CJP      2.1250 1.0000 P
PLT      2.3700 1.0000 P
STB      2.4550 1.0000 P
BJH      2.5800 0.5000 S
CJP      3.8400 0.5000 S
PLT      4.3100 0.5000 S
STB      4.5500 0.5000 S
# 2009 07 03 13 06  1.2  31.0330  110.5330   7.4  1.5   0.0   0.0   0.0 200900015
BJH      2.0200 1.0000 P
FJP      2.0950 1.0000 P
CJP      2.7650 1.0000 P
PLT      2.9250 1.0000 P
DTP      3.6600 1.0000 P
PYB      3.7750 1.0000 P
YGT      4.2400 1.0000 P
LPT      4.9200 1.0000 P
TPX      7.0900 1.0000 P
BJH      3.2000 0.5000 S
FJP      3.3350 0.5000 S
CJP      4.5000 0.5000 S
PLT      4.8750 0.5000 S
DTP      6.4550 0.5000 S
PYB      6.6900 0.5000 S
YGT      7.5200 0.5000 S
LPT      8.8650 0.5000 S
TPX     12.8550 0.5000 S
# 2009 07 03 13 14 15.7  31.0350  110.5380   8.0  0.7   0.0   0.0   0.0 200900016
BJH      1.8700 1.0000 P
FJP      1.9450 1.0000 P
CJP      2.5600 1.0000 P
PLT      2.7500 1.0000 P
SBC      3.1000 1.0000 P
DTP      3.5100 1.0000 P
PYB      3.6100 1.0000 P
DPC      4.2300 1.0000 P
LPT      4.7850 1.0000 P
BJH      3.0250 0.5000 S
FJP      3.1950 0.5000 S
CJP      4.3300 0.5000 S
PLT      4.7100 0.5000 S
SBC      5.6050 0.5000 S
DTP      6.2800 0.5000 S
PYB      6.4900 0.5000 S
DPC      7.7750 0.5000 S
LPT      8.6950 0.5000 S
# 2009 07 03 13 36  1.2  31.0350  110.5380   8.1  1.0   0.0   0.0   0.0 200900017
BJH      2.1400 1.0000 P
FJP      2.1600 1.0000 P
CJP      2.8400 1.0000 P
PLT      3.0100 1.0000 P
SBC      3.3100 1.0000 P
DTP      3.7500 1.0000 P
PYB      3.8700 1.0000 P
DPC      4.4750 1.0000 P
STP      4.9650 1.0000 P
LPT      5.0350 1.0000 P
BJH      3.2600 0.5000 S
FJP      3.4400 0.5000 S
CJP      4.6150 0.5000 S
PLT      4.9850 0.5000 S
SBC      5.9900 0.5000 S
DTP      6.4850 0.5000 S
PYB      6.7900 0.5000 S
DPC      7.9650 0.5000 S
STP      8.9150 0.5000 S
LPT      8.8150 0.5000 S
# 2009 07 03 13 46 56.8  31.0330  110.5330   8.0  0.7   0.0   0.0   0.0 200900018
BJH      1.7550 1.0000 P
FJP      1.8450 1.0000 P
PLT      2.6600 1.0000 P
STB      2.7500 1.0000 P
DTP      3.4250 1.0000 P
LPT      4.6650 1.0000 P
BJH      3.0150 0.5000 S
FJP      3.1350 0.5000 S
PLT      4.6200 0.5000 S
STB      4.8700 0.5000 S
DTP      6.0950 0.5000 S
LPT      8.5550 0.5000 S
# 2009 07 03 13 50 32.6  31.0330  110.5330   7.4  1.0   0.0   0.0   0.0 200900019
BJH      1.8350 1.0000 P
CJP      2.5450 1.0000 P
PLT      2.7500 1.0000 P
STB      2.8650 1.0000 P
SBC      3.0900 1.0000 P
MLC      3.4000 1.0000 P
DTP      3.4800 1.0000 P
LPT      4.7500 1.0000 P
BJH      3.0450 0.5000 S
CJP      4.4550 0.5000 S
PLT      4.7500 0.5000 S
STB      4.9700 0.5000 S
MLC      5.7650 0.5000 S
DTP      6.2300 0.5000 S
LPT      8.7050 0.5000 S
# 2009 07 03 13 59 35.5  31.0330  110.5360   7.1  1.3   0.0   0.0   0.0 200900020
BJH      1.8300 1.0000 P
FJP      1.8650 1.0000 P
CJP      2.5050 1.0000 P
PLT      2.7250 1.0000 P
STB      2.8550 1.0000 P
MLC      3.3150 1.0000 P
DTP      3.4600 1.0000 P
TPX      7.1300 1.0000 P
BJH      2.9700 0.5000 S
FJP      3.1000 0.5000 S
CJP      4.4100 0.5000 S
PLT      4.6750 0.5000 S
STB      4.9400 0.5000 S
MLC      5.9550 0.5000 S
DTP      6.2200 0.5000 S
TPX     12.6650 0.5000 S
# 2009 07 03 15 15 48.7  31.0280  110.5350   5.5  0.9   0.0   0.0   0.0 200900021
BJH      1.1200 1.0000 P
CJP      1.8200 1.0000 P
PLT      2.0300 1.0000 P
STB      2.1350 1.0000 P
FJP      2.3600 0.5000 S
BJH      2.3000 0.5000 S
CJP      3.5850 0.5000 S
PLT      3.9250 0.5000 S
STB      4.2000 0.5000 S
# 2009 07 03 15 42  4.9  31.0240  110.5410   2.6  0.4   0.0   0.0   0.0 200900022
CJP      1.5600 1.0000 P
STB      1.9000 1.0000 P
BJH      2.0050 0.5000 S
CJP      3.3050 0.5000 S
STB      3.9200 0.5000 S
# 2009 07 03 18 03 41.0  31.0320  110.5320   7.6  2.3   0.0   0.0   0.0 200900023
FJP      1.7250 1.0000 P
BJH      1.6650 1.0000 P
CJP      2.4000 1.0000 P
PLT      2.5700 1.0000 P
STB      2.7050 1.0000 P
DTP      3.3250 1.0000 P
PYB      3.4100 1.0000 P
LPT      4.5700 1.0000 P
FJP      2.9650 0.5000 S
BJH      2.9000 0.5000 S
CJP      4.1850 0.5000 S
PLT      4.6050 0.5000 S
STB      4.8500 0.5000 S
DTP      6.1850 0.5000 S
PYB      6.3450 0.5000 S
LPT      8.5550 0.5000 S
# 2009 07 03 18 09 38.2  31.0300  110.5330   6.3  0.6   0.0   0.0   0.0 200900024
BJH      1.9350 1.0000 P
PLT      2.8100 1.0000 P
STB      2.9750 1.0000 P
DPC      4.3100 1.0000 P
BJH      3.1100 0.5000 S
PLT      4.7800 0.5000 S
STB      5.0250 0.5000 S
DPC      7.7650 0.5000 S
# 2009 07 03 18 15 44.5  31.0300  110.5290   6.2  0.9   0.0   0.0   0.0 200900025
BJH      1.3400 1.0000 P
PLT      2.2200 1.0000 P
STB      2.3900 1.0000 P
SBC      2.5200 1.0000 P
DTP      2.9850 1.0000 P
BJH      2.4650 0.5000 S
PLT      4.2050 0.5000 S
STB      4.5500 0.5000 S
SBC      5.0000 0.5000 S
DTP      5.6900 0.5000 S
# 2009 07 03 18 19 22.9  31.0360  110.5340   7.1  2.3   0.0   0.0   0.0 200900026
CJP      1.9650 1.0000 P
PLT      2.1400 1.0000 P
SBC      2.3900 1.0000 P
MLC      2.6200 1.0000 P
DTP      2.8350 1.0000 P
PYB      2.9300 1.0000 P
DPC      3.5600 1.0000 P
LPT      4.1000 1.0000 P
TPX      6.3150 1.0000 P
CJP      3.7750 0.5000 S
PLT      4.0500 0.5000 S
SBC      4.8400 0.5000 S
MLC      5.1250 0.5000 S
DTP      5.5550 0.5000 S
PYB      5.7550 0.5000 S
DPC      7.0850 0.5000 S
LPT      7.9750 0.5000 S
TPX     12.1750 0.5000 S
# 2009 07 03 18 31  5.7  31.0360  110.5330   6.6  1.2   0.0   0.0   0.0 200900027
BJH      1.6050 1.0000 P
FJP      1.6500 1.0000 P
STB      2.6650 1.0000 P
DTP      3.2750 1.0000 P
BJH      2.7850 0.5000 S
FJP      2.9000 0.5000 S
STB      4.8200 0.5000 S
DTP      6.0400 0.5000 S
# 2009 07 03 18 52 58.3  31.0300  110.5270   5.8  1.6   0.0   0.0   0.0 200900028
BJH      1.4450 1.0000 P
CJP      2.1800 1.0000 P
PLT      2.3200 1.0000 P
STB      2.5100 1.0000 P
DTP      3.0650 1.0000 P
YGT      3.6400 1.0000 P
BJH      2.5700 0.5000 S
CJP      4.0000 0.5000 S
PLT      4.2750 0.5000 S
STB      4.5950 0.5000 S
DTP      5.7300 0.5000 S
YGT      7.0700 0.5000 S
# 2009 07 03 19 11 16.1  31.0330  110.5350   7.7  1.3   0.0   0.0   0.0 200900029
BJH      2.1150 1.0000 P
FJP      2.1600 1.0000 P
PLT      3.0000 1.0000 P
SBC      3.3350 1.0000 P
DTP      3.7500 1.0000 P
LPT      5.0450 1.0000 P
TPX      7.3750 1.0000 P
BJH      3.2900 0.5000 S
FJP      3.4400 0.5000 S
PLT      4.9300 0.5000 S
SBC      5.8550 0.5000 S
DTP      6.4600 0.5000 S
LPT      8.8900 0.5000 S
TPX     12.9600 0.5000 S
# 2009 07 03 19 20 15.9  31.0330  110.5340   7.7  2.7   0.0   0.0   0.0 200900030
BJH      1.2250 1.0000 P
FJP      1.2700 1.0000 P
CJP      1.9700 1.0000 P
PLT      2.1400 1.0000 P
STB      2.2900 1.0000 P
SBC      2.4400 1.0000 P
MLC      2.6550 1.0000 P
DTP      2.8850 1.0000 P
PYB      2.9850 1.0000 P
WLZ      3.0900 1.0000 P
DPC      3.5700 1.0000 P
TPX      6.2900 1.0000 P
BJH      2.4000 0.5000 S
FJP      2.5400 0.5000 S
CJP      3.7450 0.5000 S
PLT      4.0900 0.5000 S
STB      4.3800 0.5000 S
SBC      5.0100 0.5000 S
MLC      5.2250 0.5000 S
DTP      5.6300 0.5000 S
PYB      5.9150 0.5000 S
WLZ      6.2200 0.5000 S
DPC      6.9700 0.5000 S
TPX     11.9950 0.5000 S
# 2009 07 03 22 25 40.0  31.0340  110.5370   7.1  1.1   0.0   0.0   0.0 200900031
BJH      1.5750 1.0000 P
FJP      1.6350 1.0000 P
CJP      2.2750 1.0000 P
PLT      2.4800 1.0000 P
STB      2.5750 1.0000 P
SBC      2.8050 1.0000 P
MLC      3.0650 1.0000 P
DTP      3.2350 1.0000 P
DPC      3.9650 1.0000 P
BJH      2.7150 0.5000 S
FJP      2.8950 0.5000 S
CJP      3.9800 0.5000 S
PLT      4.4700 0.5000 S
STB      4.6800 0.5000 S
SBC      5.3800 0.5000 S
MLC      5.6200 0.5000 S
DTP      5.8850 0.5000 S
DPC      7.5400 0.5000 S
# 2009 07 03 22 34  4.2  31.0330  110.5300   7.3  1.3   0.0   0.0   0.0 200900032
FJP      2.0850 1.0000 P
BJH      2.0500 1.0000 P
CJP      2.8050 1.0000 P
PLT      2.9700 1.0000 P
STB      3.1150 1.0000 P
PYB      3.7950 1.0000 P
FJP      3.2600 0.5000 S
BJH      3.2400 0.5000 S
CJP      4.5750 0.5000 S
PLT      4.9200 0.5000 S
STB      5.2600 0.5000 S
PYB      6.6150 0.5000 S
# 2009 07 03 23 25 17.5  31.0330  110.5370   7.5  1.1   0.0   0.0   0.0 200900033
BJH      1.3650 1.0000 P
FJP      1.4700 1.0000 P
CJP      2.0550 1.0000 P
PLT      2.2850 1.0000 P
STB      2.4000 1.0000 P
MLC      2.8450 1.0000 P
DTP      3.0350 1.0000 P
LPT      4.3300 1.0000 P
BJH      2.5700 0.5000 S
FJP      2.7800 0.5000 S
CJP      3.7950 0.5000 S
PLT      4.2550 0.5000 S
STB      4.4850 0.5000 S
MLC      5.4500 0.5000 S
DTP      5.8450 0.5000 S
LPT      8.3450 0.5000 S
